start=new Date('2022-05-11T00:00:00.000Z').valueOf();
sats=[{"BSTAR":"-0.00129020000000","ECCENTRICITY":"0.00020750","EPHEMERIS_TYPE":"0","REV_AT_EPOCH":"360","RA_OF_ASC_NODE":"319.1939","LAUNCH_DATE":"2022-01-06","OBJECT_NAME":"STARLINK-3349","INCLINATION":"53.2210","CENTER_NAME":"EARTH","MEAN_MOTION_DOT":"-0.00020766","MEAN_ELEMENT_THEORY":"SGP4","OBJECT_TYPE":"PAYLOAD","OBJECT_ID":"2022-001L","CLASSIFICATION_TYPE":"U","FILE":"3439673","MEAN_MOTION":"15.08844342","EPOCH":"2022-05-10T18:00:00.999648","REF_FRAME":"TEME","GP_ID":"203228627","ARG_OF_PERICENTER":"46.9020","APOAPSIS":"541.168","ELEMENT_SET_NO":"999","MEAN_ANOMALY":"27.4124","NORAD_CAT_ID":"50813","PERIOD":"95.437","TLE_LINE1":"1 50813U 22001L   22130.75001157 -.00020766  00000-0 -12902-2 0  9995","SEMIMAJOR_AXIS":"6917.867","DECAY_DATE":null,"SITE":"AFETR","COUNTRY_CODE":"US","TLE_LINE2":"2 50813  53.2210 319.1939 0002075  46.9020  27.4124 15.08844342  3600","TIME_SYSTEM":"UTC","RCS_SIZE":"LARGE","PERIAPSIS":"538.297","MEAN_MOTION_DDOT":"0.0000000000000"},{"GP_ID":"203229379","REF_FRAME":"TEME","MEAN_MOTION":"15.08855945","EPOCH":"2022-05-10T18:00:00.999648","FILE":"3439673","ARG_OF_PERICENTER":"62.7165","CENTER_NAME":"EARTH","CLASSIFICATION_TYPE":"U","OBJECT_TYPE":"PAYLOAD","MEAN_ELEMENT_THEORY":"SGP4","OBJECT_ID":"2022-001M","MEAN_MOTION_DOT":"-0.00019423","OBJECT_NAME":"STARLINK-3324","LAUNCH_DATE":"2022-01-06","RA_OF_ASC_NODE":"329.1902","REV_AT_EPOCH":"358","EPHEMERIS_TYPE":"0","INCLINATION":"53.2170","BSTAR":"-0.00120500000000","ECCENTRICITY":"0.00014760","RCS_SIZE":"LARGE","PERIAPSIS":"538.676","MEAN_MOTION_DDOT":"0.0000000000000","COUNTRY_CODE":"US","SITE":"AFETR","TIME_SYSTEM":"UTC","TLE_LINE2":"2 50814  53.2170 329.1902 0001476  62.7165 121.8111 15.08855945  3580","DECAY_DATE":null,"TLE_LINE1":"1 50814U 22001M   22130.75001157 -.00019423  00000-0 -12050-2 0  9998","SEMIMAJOR_AXIS":"6917.832","PERIOD":"95.437","NORAD_CAT_ID":"50814","APOAPSIS":"540.718","ELEMENT_SET_NO":"999","MEAN_ANOMALY":"121.8111"},{"DECAY_DATE":null,"PERIOD":"95.437","NORAD_CAT_ID":"50815","SEMIMAJOR_AXIS":"6917.877","TLE_LINE1":"1 50815U 22001N   22130.75001157 -.00023660  00000-0 -14733-2 0  9997","ELEMENT_SET_NO":"999","APOAPSIS":"540.996","MEAN_ANOMALY":"72.9746","RCS_SIZE":"LARGE","PERIAPSIS":"538.488","MEAN_MOTION_DDOT":"0.0000000000000","SITE":"AFETR","COUNTRY_CODE":"US","TIME_SYSTEM":"UTC","TLE_LINE2":"2 50815  53.2161 329.1898 0001813  51.5422  72.9746 15.08841017  3587","RA_OF_ASC_NODE":"329.1898","LAUNCH_DATE":"2022-01-06","OBJECT_NAME":"STARLINK-3234","EPHEMERIS_TYPE":"0","REV_AT_EPOCH":"358","INCLINATION":"53.2161","BSTAR":"-0.00147330000000","ECCENTRICITY":"0.00018130","REF_FRAME":"TEME","GP_ID":"203230128","FILE":"3439673","EPOCH":"2022-05-10T18:00:00.999648","MEAN_MOTION":"15.08841017","ARG_OF_PERICENTER":"51.5422","CENTER_NAME":"EARTH","MEAN_ELEMENT_THEORY":"SGP4","OBJECT_TYPE":"PAYLOAD","OBJECT_ID":"2022-001N","CLASSIFICATION_TYPE":"U","MEAN_MOTION_DOT":"-0.00023660"},{"INCLINATION":"53.2174","LAUNCH_DATE":"2022-01-06","OBJECT_NAME":"STARLINK-3342","RA_OF_ASC_NODE":"329.2129","EPHEMERIS_TYPE":"0","REV_AT_EPOCH":"358","ECCENTRICITY":"0.00018390","BSTAR":"-0.00099569000000","ARG_OF_PERICENTER":"49.9761","REF_FRAME":"TEME","GP_ID":"203228877","FILE":"3439673","MEAN_MOTION":"15.08837323","EPOCH":"2022-05-10T18:00:00.999648","OBJECT_ID":"2022-001P","OBJECT_TYPE":"PAYLOAD","MEAN_ELEMENT_THEORY":"SGP4","CLASSIFICATION_TYPE":"U","MEAN_MOTION_DOT":"-0.00016099","CENTER_NAME":"EARTH","DECAY_DATE":null,"PERIOD":"95.438","NORAD_CAT_ID":"50816","SEMIMAJOR_AXIS":"6917.889","TLE_LINE1":"1 50816U 22001P   22130.75001157 -.00016099  00000-0 -99569-3 0  9997","MEAN_ANOMALY":"234.5441","APOAPSIS":"541.026","ELEMENT_SET_NO":"999","MEAN_MOTION_DDOT":"0.0000000000000","PERIAPSIS":"538.481","RCS_SIZE":"LARGE","TLE_LINE2":"2 50816  53.2174 329.2129 0001839  49.9761 234.5441 15.08837323  3588","TIME_SYSTEM":"UTC","SITE":"AFETR","COUNTRY_CODE":"US"},{"MEAN_MOTION_DOT":"-0.00022160","OBJECT_ID":"2022-001Q","OBJECT_TYPE":"PAYLOAD","MEAN_ELEMENT_THEORY":"SGP4","CLASSIFICATION_TYPE":"U","CENTER_NAME":"EARTH","ARG_OF_PERICENTER":"52.1547","FILE":"3439673","MEAN_MOTION":"15.08837382","EPOCH":"2022-05-10T18:00:00.999648","REF_FRAME":"TEME","GP_ID":"203229127","ECCENTRICITY":"0.00016620","BSTAR":"-0.00137860000000","INCLINATION":"53.2177","EPHEMERIS_TYPE":"0","REV_AT_EPOCH":"358","RA_OF_ASC_NODE":"329.1944","LAUNCH_DATE":"2022-01-06","OBJECT_NAME":"STARLINK-3341","TIME_SYSTEM":"UTC","TLE_LINE2":"2 50817  53.2177 329.1944 0001662  52.1547  92.3533 15.08837382  3585","SITE":"AFETR","COUNTRY_CODE":"US","MEAN_MOTION_DDOT":"0.0000000000000","PERIAPSIS":"538.604","RCS_SIZE":"LARGE","MEAN_ANOMALY":"92.3533","APOAPSIS":"540.903","ELEMENT_SET_NO":"999","NORAD_CAT_ID":"50817","PERIOD":"95.438","TLE_LINE1":"1 50817U 22001Q   22130.75001157 -.00022160  00000-0 -13786-2 0  9990","SEMIMAJOR_AXIS":"6917.888","DECAY_DATE":null},{"RCS_SIZE":"LARGE","PERIAPSIS":"538.133","MEAN_MOTION_DDOT":"0.0000000000000","SITE":"AFETR","COUNTRY_CODE":"US","TIME_SYSTEM":"UTC","TLE_LINE2":"2 50818  53.2165 329.2078 0002254  43.4647 200.9652 15.08857332  3580","DECAY_DATE":null,"PERIOD":"95.436","NORAD_CAT_ID":"50818","TLE_LINE1":"1 50818U 22001R   22130.75001157 -.00016466  00000-0 -10183-2 0  9991","SEMIMAJOR_AXIS":"6917.827","APOAPSIS":"541.252","ELEMENT_SET_NO":"999","MEAN_ANOMALY":"200.9652","REF_FRAME":"TEME","GP_ID":"203229879","FILE":"3439673","MEAN_MOTION":"15.08857332","EPOCH":"2022-05-10T18:00:00.999648","ARG_OF_PERICENTER":"43.4647","CENTER_NAME":"EARTH","OBJECT_TYPE":"PAYLOAD","OBJECT_ID":"2022-001R","MEAN_ELEMENT_THEORY":"SGP4","CLASSIFICATION_TYPE":"U","MEAN_MOTION_DOT":"-0.00016466","LAUNCH_DATE":"2022-01-06","RA_OF_ASC_NODE":"329.2078","OBJECT_NAME":"STARLINK-3336","EPHEMERIS_TYPE":"0","REV_AT_EPOCH":"358","INCLINATION":"53.2165","BSTAR":"-0.00101830000000","ECCENTRICITY":"0.00022540"},{"SEMIMAJOR_AXIS":"6917.816","TLE_LINE1":"1 50819U 22001S   22130.75001157 -.00063439  00000-0 -40010-2 0  9996","PERIOD":"95.436","NORAD_CAT_ID":"50819","DECAY_DATE":null,"APOAPSIS":"540.594","ELEMENT_SET_NO":"999","MEAN_ANOMALY":"134.4200","RCS_SIZE":"LARGE","PERIAPSIS":"538.768","MEAN_MOTION_DDOT":"0.0000000000000","COUNTRY_CODE":"US","SITE":"AFETR","TIME_SYSTEM":"UTC","TLE_LINE2":"2 50819  53.2172 329.1890 0001320  70.1055 134.4200 15.08861026  3588","REV_AT_EPOCH":"358","EPHEMERIS_TYPE":"0","LAUNCH_DATE":"2022-01-06","OBJECT_NAME":"STARLINK-3327","RA_OF_ASC_NODE":"329.1890","INCLINATION":"53.2172","BSTAR":"-0.00400100000000","ECCENTRICITY":"0.00013200","EPOCH":"2022-05-10T18:00:00.999648","MEAN_MOTION":"15.08861026","FILE":"3439673","GP_ID":"203229629","REF_FRAME":"TEME","ARG_OF_PERICENTER":"70.1055","CENTER_NAME":"EARTH","MEAN_MOTION_DOT":"-0.00063439","CLASSIFICATION_TYPE":"U","OBJECT_TYPE":"PAYLOAD","OBJECT_ID":"2022-001S","MEAN_ELEMENT_THEORY":"SGP4"},{"INCLINATION":"53.2172","EPHEMERIS_TYPE":"0","REV_AT_EPOCH":"358","LAUNCH_DATE":"2022-01-06","RA_OF_ASC_NODE":"329.2124","OBJECT_NAME":"STARLINK-3339","ECCENTRICITY":"0.00017870","BSTAR":"-0.00167090000000","ARG_OF_PERICENTER":"52.1451","FILE":"3439673","MEAN_MOTION":"15.08854154","EPOCH":"2022-05-10T18:00:00.999648","REF_FRAME":"TEME","GP_ID":"203228378","MEAN_MOTION_DOT":"-0.00026793","MEAN_ELEMENT_THEORY":"SGP4","OBJECT_TYPE":"PAYLOAD","OBJECT_ID":"2022-001T","CLASSIFICATION_TYPE":"U","CENTER_NAME":"EARTH","PERIOD":"95.437","NORAD_CAT_ID":"50820","SEMIMAJOR_AXIS":"6917.837","TLE_LINE1":"1 50820U 22001T   22130.75001157 -.00026793  00000-0 -16709-2 0  9998","DECAY_DATE":null,"MEAN_ANOMALY":"252.3760","APOAPSIS":"540.938","ELEMENT_SET_NO":"999","MEAN_MOTION_DDOT":"0.0000000000000","PERIAPSIS":"538.466","RCS_SIZE":"LARGE","TIME_SYSTEM":"UTC","TLE_LINE2":"2 50820  53.2172 329.2124 0001787  52.1451 252.3760 15.08854154  3583","SITE":"AFETR","COUNTRY_CODE":"US"},{"ARG_OF_PERICENTER":"53.9197","REF_FRAME":"TEME","GP_ID":"203228628","FILE":"3439673","EPOCH":"2022-05-10T18:00:00.999648","MEAN_MOTION":"15.08849059","MEAN_ELEMENT_THEORY":"SGP4","OBJECT_TYPE":"PAYLOAD","OBJECT_ID":"2022-001U","CLASSIFICATION_TYPE":"U","MEAN_MOTION_DOT":"-0.00022763","CENTER_NAME":"EARTH","INCLINATION":"53.2181","OBJECT_NAME":"STARLINK-3346","LAUNCH_DATE":"2022-01-06","RA_OF_ASC_NODE":"329.2129","EPHEMERIS_TYPE":"0","REV_AT_EPOCH":"358","ECCENTRICITY":"0.00016820","BSTAR":"-0.00141630000000","PERIAPSIS":"538.554","MEAN_MOTION_DDOT":"0.0000000000000","RCS_SIZE":"LARGE","TLE_LINE2":"2 50821  53.2181 329.2129 0001682  53.9197 330.5721 15.08849059  3583","TIME_SYSTEM":"UTC","SITE":"AFETR","COUNTRY_CODE":"US","DECAY_DATE":null,"NORAD_CAT_ID":"50821","PERIOD":"95.437","SEMIMAJOR_AXIS":"6917.853","TLE_LINE1":"1 50821U 22001U   22130.75001157 -.00022763  00000-0 -14163-2 0  9994","MEAN_ANOMALY":"330.5721","APOAPSIS":"540.881","ELEMENT_SET_NO":"999"},{"INCLINATION":"53.2183","OBJECT_NAME":"STARLINK-3343","LAUNCH_DATE":"2022-01-06","RA_OF_ASC_NODE":"329.2121","REV_AT_EPOCH":"357","EPHEMERIS_TYPE":"0","ECCENTRICITY":"0.00018570","BSTAR":"-0.00404280000000","ARG_OF_PERICENTER":"54.6104","GP_ID":"203229380","REF_FRAME":"TEME","MEAN_MOTION":"15.08863958","EPOCH":"2022-05-10T18:00:00.999648","FILE":"3439673","CLASSIFICATION_TYPE":"U","OBJECT_ID":"2022-001V","OBJECT_TYPE":"PAYLOAD","MEAN_ELEMENT_THEORY":"SGP4","MEAN_MOTION_DOT":"-0.00064100","CENTER_NAME":"EARTH","DECAY_DATE":null,"TLE_LINE1":"1 50822U 22001V   22130.75001157 -.00064100  00000-0 -40428-2 0  9999","SEMIMAJOR_AXIS":"6917.807","PERIOD":"95.436","NORAD_CAT_ID":"50822","MEAN_ANOMALY":"289.9051","ELEMENT_SET_NO":"999","APOAPSIS":"540.957","PERIAPSIS":"538.388","MEAN_MOTION_DDOT":"0.0000000000000","RCS_SIZE":"LARGE","TLE_LINE2":"2 50822  53.2183 329.2121 0001857  54.6104 289.9051 15.08863958  3574","TIME_SYSTEM":"UTC","COUNTRY_CODE":"US","SITE":"AFETR"}];
